NORAD_CAT_ID,OBJECT_NAME,OBJECT_TYPE,EPOCH,MEAN_MOTION,ECCENTRICITY,INCLINATION,RA_OF_ASC_NODE,ARG_OF_PERICENTER,MEAN_ANOMALY,BSTAR,MEAN_MOTION_DOT,MEAN_MOTION_DDOT,TLE_LINE0,TLE_LINE1,TLE_LINE2,SEMIMAJOR_AXIS,PERIOD,APOGEE,PERIGEE,DECAYED
52502.0,STARLINK-3912,PAYLOAD,2022-06-03 05:20:29,15.73209844,0.0001833,53.2168,128.5939,48.7591,311.3587,7.7863e-05,0.00010325,0.0,0 STARLINK-3912,1 52502U 22049BD  22154.22256425  .00010325  00000-0  77863-4 0  9999,2 52502  53.2168 128.5939 0001833  48.7591 311.3587 15.73209844  4552,6727.8669999999975,91.533,350.965,348.499,0.0
52502.0,STARLINK-3912,PAYLOAD,2022-06-03 09:54:56,15.73198862,0.0001809,53.2157,127.652,44.0436,316.0728,5.573100000000001e-05,7.207e-05,0.0,0 STARLINK-3912,1 52502U 22049BD  22154.41315261  .00007207  00000-0  55731-4 0  9999,2 52502  53.2157 127.6520 0001809  44.0436 316.0728 15.73198862  4585,6727.898,91.533,350.98,348.546,0.0
52502.0,STARLINK-3912,PAYLOAD,2022-06-04 04:12:41,15.73236455,0.0001626,53.2163,123.8802,38.1002,322.0133,0.00014814,0.00020253,0.0,0 STARLINK-3912,1 52502U 22049BD  22155.17547612  .00020253  00000-0  14814-3 0  9992,2 52502  53.2163 123.8802 0001626  38.1002 322.0133 15.73236455  4705,6727.791,91.531,350.75,348.56199999999984,0.0
52502.0,STARLINK-3912,PAYLOAD,2022-06-04 08:47:07,15.73231897,0.0002172,53.2166,122.9376,44.89,315.2295,0.00012964,0.00017637,0.0,0 STARLINK-3912,1 52502U 22049BD  22155.36606185  .00017637  00000-0  12964-3 0  9990,2 52502  53.2166 122.9376 0002172  44.8900 315.2295 15.73231897  4733,6727.804,91.531,351.131,348.208,0.0
52502.0,STARLINK-3912,PAYLOAD,2022-06-05 22:00:00,15.73232878,0.0001605,53.2163,115.2627,41.7657,105.4329,-0.00050006,-0.00070317,0.0,0 STARLINK-3912,1 52502U 22049BD  22156.91667824 -.00070317  00000-0 -50006-3 0  9994,2 52502  53.2163 115.2627 0001605  41.7657 105.4329 15.73232878  4972,6727.801,91.531,350.746,348.587,0.0
52502.0,STARLINK-3912,PAYLOAD,2022-06-06 14:00:01,15.7320232,0.0001569,53.216,111.9648,35.6099,289.4395,8.1816e-05,0.00010878,0.0,0 STARLINK-3912,1 52502U 22049BD  22157.58334491  .00010878  00000-0  81816-4 0  9997,2 52502  53.2160 111.9648 0001569  35.6099 289.4395 15.73202320  5073,6727.889,91.533,350.809,348.6980000000001,0.0
52502.0,STARLINK-3912,PAYLOAD,2022-06-06 22:00:00,15.73256345,0.0001568,53.2161,110.315,42.5604,11.4198,-0.00055011,-0.00077307,0.0,0 STARLINK-3912,1 52502U 22049BD  22157.91667824 -.00077307  00000-0 -55011-3 0  9992,2 52502  53.2161 110.3150 0001568  42.5604  11.4198 15.73256345  1305,6727.735,91.53,350.654,348.545,0.0
52502.0,STARLINK-3912,PAYLOAD,2022-06-07 14:00:01,15.73262026,0.0001575,53.2161,107.0162,41.7005,190.1766,-0.00052054,-0.00073237,0.0,0 STARLINK-3912,1 52502U 22049BD  22158.58334491 -.00073237  00000-0 -52054-3 0  9999,2 52502  53.2161 107.0162 0001575  41.7005 190.1766 15.73262026  1304,6727.718000000003,91.53,350.64300000000014,348.524,0.0
52502.0,STARLINK-3912,PAYLOAD,2022-06-07 22:00:00,15.73217698,0.0001457,53.2164,105.3661,40.4818,280.3637,2.539800000000001e-05,2.948e-05,0.0,0 STARLINK-3912,1 52502U 22049BD  22158.91667824  .00002948  00000-0  25398-4 0  9996,2 52502  53.2164 105.3661 0001457  40.4818 280.3637 15.73217698  5284,6727.845,91.532,350.69,348.72900000000016,0.0
52502.0,STARLINK-3912,PAYLOAD,2022-06-08 14:00:01,15.73231212,0.0001498,53.2161,102.0671,37.6592,101.0961,-0.00061908,-0.00086731,0.0,0 STARLINK-3912,1 52502U 22049BD  22159.58334491 -.00086731  00000-0 -61908-3 0  9991,2 52502  53.2161 102.0671 0001498  37.6592 101.0961 15.73231212  1304,6727.806,91.531,350.67900000000014,348.663,0.0
52502.0,STARLINK-3912,PAYLOAD,2022-06-08 22:00:01,15.73151236,0.0001639,53.2161,100.4177,48.8426,178.8772,-0.00016185,-0.00023225,0.0,0 STARLINK-3912,1 52502U 22049BD  22159.91668981 -.00023225  00000-0 -16185-3 0  9998,2 52502  53.2161 100.4177 0001639  48.8426 178.8772 15.73151236  5442,6728.034000000002,91.536,351.00199999999984,348.796,0.0
52502.0,STARLINK-3912,PAYLOAD,2022-06-09 14:00:01,15.73154475,0.0001639,53.2162,97.1187,48.9841,356.3869,0.00030148,0.0004182,0.0,0 STARLINK-3912,1 52502U 22049BD  22160.58334491  .00041820  00000-0  30148-3 0  9993,2 52502  53.2162  97.1187 0001639  48.9841 356.3869 15.73154475  1307,6728.025,91.536,350.99300000000005,348.787,0.0
52502.0,STARLINK-3912,PAYLOAD,2022-06-09 22:00:00,15.73199431,0.000172,53.2165,95.4693,51.8796,82.3711,0.00010788,0.00014546,0.0,0 STARLINK-3912,1 52502U 22049BD  22160.91667824  .00014546  00000-0  10788-3 0  9992,2 52502  53.2165  95.4693 0001720  51.8796  82.3711 15.73199431  1309,6727.897,91.533,350.9190000000001,348.605,0.0
52502.0,STARLINK-3912,PAYLOAD,2022-06-10 00:00:00,15.73205461,0.0001774,53.2165,95.0576,49.463,197.0188,4.326100000000001e-05,5.456e-05,0.0,0 STARLINK-3912,1 52502U 22049BD  22161.00001157  .00005456  00000-0  43261-4 0  9997,2 52502  53.2165  95.0576 0001774  49.4630 197.0188 15.73205461  5615,6727.88,91.533,350.93800000000016,348.551,0.0
52502.0,STARLINK-3912,PAYLOAD,2022-06-10 14:00:01,15.73270957,0.0001558,53.2165,92.1696,47.6795,264.4829,-0.00045025,-0.00063528,0.0,0 STARLINK-3912,1 52502U 22049BD  22161.58334491 -.00063528  00000-0 -45025-3 0  9995,2 52502  53.2165  92.1696 0001558  47.6795 264.4829 15.73270957  5701,6727.693,91.529,350.606,348.51,0.0
52502.0,STARLINK-3912,PAYLOAD,2022-06-10 22:00:00,15.73258644,0.0001416,53.2166,90.5205,42.9539,358.1987,-0.00048788,-0.00068706,0.0,0 STARLINK-3912,1 52502U 22049BD  22161.91667824 -.00068706  00000-0 -48788-3 0  9993,2 52502  53.2166  90.5205 0001416  42.9539 358.1987 15.73258644  1304,6727.728,91.53,350.546,348.64,0.0
52502.0,STARLINK-3912,PAYLOAD,2022-06-11 06:00:00,15.7315991,0.0001462,53.2164,88.8725,33.6812,96.4596,0.00062467,0.00087818,0.0,0 STARLINK-3912,1 52502U 22049BD  22162.25001157  .00087818  00000-0  62467-3 0  9995,2 52502  53.2164  88.8725 0001462  33.6812  96.4596 15.73159910  5815,6728.009,91.536,350.858,348.891,0.0
52502.0,STARLINK-3912,PAYLOAD,2022-06-11 14:00:01,15.73215674,0.0001326,53.2167,87.2209,40.718,178.3435,-0.00029226,-0.00041462,0.0,0 STARLINK-3912,1 52502U 22049BD  22162.58334491 -.00041462  00000-0 -29226-3 0  9994,2 52502  53.2167  87.2209 0001326  40.7180 178.3435 15.73215674  5861,6727.85,91.532,350.608,348.8230000000001,0.0
52502.0,STARLINK-3912,PAYLOAD,2022-06-11 22:00:00,15.73201582,0.0001463,53.2171,85.5719,46.8589,261.1291,8.630600000000001e-05,0.0001151,0.0,0 STARLINK-3912,1 52502U 22049BD  22162.91667824  .00011510  00000-0  86306-4 0  9992,2 52502  53.2171  85.5719 0001463  46.8589 261.1291 15.73201582  1304,6727.891,91.533,350.74,348.771,0.0
52502.0,STARLINK-3912,PAYLOAD,2022-06-12 06:00:02,15.73209543,0.0001714,53.217,83.9239,41.5298,355.4501,0.00015898,0.00021759,0.0,0 STARLINK-3912,1 52502U 22049BD  22163.25002315  .00021759  00000-0  15898-3 0  9991,2 52502  53.2170  83.9239 0001714  41.5298 355.4501 15.73209543  5973,6727.868,91.533,350.886,348.58,0.0
52502.0,STARLINK-3912,PAYLOAD,2022-06-12 14:00:01,15.73168443,0.0001535,53.2171,82.2725,50.6213,75.2653,0.00033692,0.00046865,0.0,0 STARLINK-3912,1 52502U 22049BD  22163.58334491  .00046865  00000-0  33692-3 0  9997,2 52502  53.2171  82.2725 0001535  50.6213  75.2653 15.73168443  1306,6727.985,91.535,350.8830000000001,348.81699999999995,0.0
52502.0,STARLINK-3912,PAYLOAD,2022-06-12 22:00:00,15.73244451,0.0001585999999999,53.2173,80.6241,52.6763,162.123,-0.00023805,-0.00033959,0.0,0 STARLINK-3912,1 52502U 22049BD  22163.91667824 -.00033959  00000-0 -23805-3 0  9990,2 52502  53.2173  80.6241 0001586  52.6763 162.1230 15.73244451  6071,6727.768,91.531,350.7,348.566,0.0
52502.0,STARLINK-3912,PAYLOAD,2022-06-13 14:00:01,15.73226283,0.0001216,53.2172,77.3242,45.4488,347.28,-0.00014149,-0.00020451,0.0,0 STARLINK-3912,1 52502U 22049BD  22164.58334491 -.00020451  00000-0 -14149-3 0  9999,2 52502  53.2172  77.3242 0001216  45.4488 347.2800 15.73226283  6182,6727.82,91.532,350.50300000000016,348.867,0.0
52502.0,STARLINK-3912,PAYLOAD,2022-06-13 22:00:00,15.7326162,0.0001354,53.2176,75.6758,44.3604,77.3207,-0.00055624,-0.00078168,0.0,0 STARLINK-3912,1 52502U 22049BD  22164.91667824 -.00078168  00000-0 -55624-3 0  9996,2 52502  53.2176  75.6758 0001354  44.3604  77.3207 15.73261620  1305,6727.719,91.53,350.495,348.6740000000001,0.0
52502.0,STARLINK-3912,PAYLOAD,2022-06-14 14:00:01,15.73137246,0.0001468,53.2174,72.3761,53.1295,246.4429,0.00046779,0.00065367,0.0,0 STARLINK-3912,1 52502U 22049BD  22165.58334491  .00065367  00000-0  46779-3 0  9997,2 52502  53.2174  72.3761 0001468  53.1295 246.4429 15.73137246  1302,6728.074000000001,91.537,350.927,348.951,0.0
52502.0,STARLINK-3912,PAYLOAD,2022-06-14 22:00:00,15.73182841,0.0001431999999999,53.2174,70.72800000000002,49.7733,338.6905,-0.00030483,-0.00043151,0.0,0 STARLINK-3912,1 52502U 22049BD  22165.91667824 -.00043151  00000-0 -30483-3 0  9997,2 52502  53.2174  70.7280 0001432  49.7733 338.6905 15.73182841  6397,6727.944,91.534,350.773,348.846,0.0
52502.0,STARLINK-3912,PAYLOAD,2022-06-15 14:00:01,15.73186342,0.0001266,53.217,67.428,51.8014,154.453,0.00039955,0.00055794,0.0,0 STARLINK-3912,1 52502U 22049BD  22166.58334491  .00055794  00000-0  39955-3 0  9999,2 52502  53.2170  67.4280 0001266  51.8014 154.4530 15.73186342  6496,6727.934,91.534,350.651,348.94699999999995,0.0
52502.0,STARLINK-3912,PAYLOAD,2022-06-15 22:00:00,15.73209231,0.0001537,53.2172,65.7799,53.4976,241.7003,-0.00019041,-0.00027268,0.0,0 STARLINK-3912,1 52502U 22049BD  22166.91667824 -.00027268  00000-0 -19041-3 0  9996,2 52502  53.2172  65.7799 0001537  53.4976 241.7003 15.73209231  6544,6727.869000000002,91.533,350.76800000000014,348.7,0.0
52502.0,STARLINK-3912,PAYLOAD,2022-06-16 02:00:01,15.73184367,0.0001614,53.2173,64.956,49.8322,109.8572,0.00063253,0.00089038,0.0,0 STARLINK-3912,1 52502U 22049BD  22167.08334491  .00089038  00000-0  63253-3 0  9991,2 52502  53.2173  64.9560 0001614  49.8322 109.8572 15.73184367  1308,6727.94,91.534,350.891,348.719,0.0
